{"type": "FeatureCollection", "features": [{"type": "Feature", "properties": {"norad_id": 24946, "name": "IRIDIUM 33", "group": "iridium-33-debris", "lat": -39.73739682531745, "lon": 65.78400010126832, "alt_km": 783.5893388181012, "timestamp": "2025-12-11T08:58:27.509833+00:00", "meta": {"OBJECT_NAME": "IRIDIUM 33", "OBJECT_ID": "1997-051C", "EPOCH": "2025-12-11T04:08:21.383808", "MEAN_MOTION": 14.35035588, "ECCENTRICITY": 0.0006852, "INCLINATION": 86.3869, "RA_OF_ASC_NODE": 68.8795, "ARG_OF_PERICENTER": 206.017, "MEAN_ANOMALY": 154.0683, "EPHEMERIS_TYPE": 0, "CLASSIFICATION_TYPE": "U", "NORAD_CAT_ID": 24946, "ELEMENT_SET_NO": 999, "REV_AT_EPOCH": 47812, "BSTAR": 0.00018191, "MEAN_MOTION_DOT": 5.38e-06, "MEAN_MOTION_DDOT": 0}, "tle": {"line1": "1 24946U 97051C   25345.17246972  .00000538  00000+0  18191-3 0  9992", "line2": "2 24946  86.3869  68.8795 0006852 206.0170 154.0683 14.35035588478128"}}, "geometry": {"type": "Point", "coordinates": [65.78400010126832, -39.73739682531745]}}, {"type": "Feature", "properties": {"norad_id": 33773, "name": "IRIDIUM 33 DEB", "group": "iridium-33-debris", "lat": -56.874905046494234, "lon": -113.29691485023415, "alt_km": 754.4118059805041, "timestamp": "2025-12-11T08:58:27.509863+00:00", "meta": {"OBJECT_NAME": "IRIDIUM 33 DEB", "OBJECT_ID": "1997-051L", "EPOCH": "2025-12-11T04:33:09.150336", "MEAN_MOTION": 14.43251154, "ECCENTRICITY": 0.0012335, "INCLINATION": 86.4012, "RA_OF_ASC_NODE": 61.2464, "ARG_OF_PERICENTER": 150.9805, "MEAN_ANOMALY": 209.2084, "EPHEMERIS_TYPE": 0, "CLASSIFICATION_TYPE": "U", "NORAD_CAT_ID": 33773, "ELEMENT_SET_NO": 999, "REV_AT_EPOCH": 88325, "BSTAR": 0.00045507, "MEAN_MOTION_DOT": 1.552e-05, "MEAN_MOTION_DDOT": 0}, "tle": {"line1": "1 33773U 97051L   25345.18968924  .00001552  00000+0  45507-3 0  9997", "line2": "2 33773  86.4012  61.2464 0012335 150.9805 209.2084 14.43251154883252"}}, "geometry": {"type": "Point", "coordinates": [-113.29691485023415, -56.874905046494234]}}, {"type": "Feature", "properties": {"norad_id": 33775, "name": "IRIDIUM 33 DEB", "group": "iridium-33-debris", "lat": -30.88830533492047, "lon": 47.95661620721378, "alt_km": 769.6997184365973, "timestamp": "2025-12-11T08:58:27.509878+00:00", "meta": {"OBJECT_NAME": "IRIDIUM 33 DEB", "OBJECT_ID": "1997-051N", "EPOCH": "2025-12-11T04:23:46.796064", "MEAN_MOTION": 14.41463004, "ECCENTRICITY": 0.0014136, "INCLINATION": 86.3638, "RA_OF_ASC_NODE": 50.2181, "ARG_OF_PERICENTER": 159.3513, "MEAN_ANOMALY": 260.5544, "EPHEMERIS_TYPE": 0, "CLASSIFICATION_TYPE": "U", "NORAD_CAT_ID": 33775, "ELEMENT_SET_NO": 999, "REV_AT_EPOCH": 88118, "BSTAR": 0.00048545, "MEAN_MOTION_DOT": 1.596e-05, "MEAN_MOTION_DDOT": 0}, "tle": {"line1": "1 33775U 97051N   25345.18318051  .00001596  00000+0  48545-3 0  9992", "line2": "2 33775  86.3638  50.2181 0014136 159.3513 260.5544 14.41463004881189"}}, "geometry": {"type": "Point", "coordinates": [47.95661620721378, -30.88830533492047]}}, {"type": "Feature", "properties": {"norad_id": 33776, "name": "IRIDIUM 33 DEB", "group": "iridium-33-debris", "lat": -34.77022421947651, "lon": -96.14817827481245, "alt_km": 761.145188502478, "timestamp": "2025-12-11T08:58:27.509891+00:00", "meta": {"OBJECT_NAME": "IRIDIUM 33 DEB", "OBJECT_ID": "1997-051P", "EPOCH": "2025-12-11T04:55:52.773888", "MEAN_MOTION": 14.38230599, "ECCENTRICITY": 0.0014171, "INCLINATION": 86.4038, "RA_OF_ASC_NODE": 81.4202, "ARG_OF_PERICENTER": 195.5045, "MEAN_ANOMALY": 227.5273, "EPHEMERIS_TYPE": 0, "CLASSIFICATION_TYPE": "U", "NORAD_CAT_ID": 33776, "ELEMENT_SET_NO": 999, "REV_AT_EPOCH": 88060, "BSTAR": 0.00046315, "MEAN_MOTION_DOT": 1.427e-05, "MEAN_MOTION_DDOT": 0}, "tle": {"line1": "1 33776U 97051P   25345.20547192  .00001427  00000+0  46315-3 0  9992", "line2": "2 33776  86.4038  81.4202 0014171 195.5045 227.5273 14.38230599880601"}}, "geometry": {"type": "Point", "coordinates": [-96.14817827481245, -34.77022421947651]}}, {"type": "Feature", "properties": {"norad_id": 33777, "name": "IRIDIUM 33 DEB", "group": "iridium-33-debris", "lat": -82.04852103640486, "lon": 8.833731229703814, "alt_km": 711.5131852057684, "timestamp": "2025-12-11T08:58:27.509903+00:00", "meta": {"OBJECT_NAME": "IRIDIUM 33 DEB", "OBJECT_ID": "1997-051Q", "EPOCH": "2025-12-11T04:24:18.065088", "MEAN_MOTION": 14.55595173, "ECCENTRICITY": 0.0005102, "INCLINATION": 86.3785, "RA_OF_ASC_NODE": 35.8801, "ARG_OF_PERICENTER": 256.1395, "MEAN_ANOMALY": 103.9245, "EPHEMERIS_TYPE": 0, "CLASSIFICATION_TYPE": "U", "NORAD_CAT_ID": 33777, "ELEMENT_SET_NO": 999, "REV_AT_EPOCH": 88511, "BSTAR": 0.0013559, "MEAN_MOTION_DOT": 5.934e-05, "MEAN_MOTION_DDOT": 0}, "tle": {"line1": "1 33777U 97051Q   25345.18354242  .00005934  00000+0  13559-2 0  9992", "line2": "2 33777  86.3785  35.8801 0005102 256.1395 103.9245 14.55595173885112"}}, "geometry": {"type": "Point", "coordinates": [8.833731229703814, -82.04852103640486]}}, {"type": "Feature", "properties": {"norad_id": 33850, "name": "IRIDIUM 33 DEB", "group": "iridium-33-debris", "lat": -53.136749088219105, "lon": 25.872710905836158, "alt_km": 765.2328740951734, "timestamp": "2025-12-11T08:58:27.509916+00:00", "meta": {"OBJECT_NAME": "IRIDIUM 33 DEB", "OBJECT_ID": "1997-051T", "EPOCH": "2025-12-11T04:30:10.253088", "MEAN_MOTION": 14.42141315, "ECCENTRICITY": 0.0012049, "INCLINATION": 86.3419, "RA_OF_ASC_NODE": 30.8472, "ARG_OF_PERICENTER": 165.8293, "MEAN_ANOMALY": 254.2129, "EPHEMERIS_TYPE": 0, "CLASSIFICATION_TYPE": "U", "NORAD_CAT_ID": 33850, "ELEMENT_SET_NO": 999, "REV_AT_EPOCH": 88130, "BSTAR": 0.00045596, "MEAN_MOTION_DOT": 1.52e-05, "MEAN_MOTION_DDOT": 0}, "tle": {"line1": "1 33850U 97051T   25345.18761867  .00001520  00000+0  45596-3 0  9993", "line2": "2 33850  86.3419  30.8472 0012049 165.8293 254.2129 14.42141315881307"}}, "geometry": {"type": "Point", "coordinates": [25.872710905836158, -53.136749088219105]}}, {"type": "Feature", "properties": {"norad_id": 33853, "name": "IRIDIUM 33 DEB", "group": "iridium-33-debris", "lat": 0.6519255006906538, "lon": 170.36459803164982, "alt_km": 824.2438826912057, "timestamp": "2025-12-11T08:58:27.509928+00:00", "meta": {"OBJECT_NAME": "IRIDIUM 33 DEB", "OBJECT_ID": "1997-051W", "EPOCH": "2025-12-10T23:36:33.217920", "MEAN_MOTION": 13.99044488, "ECCENTRICITY": 0.020703, "INCLINATION": 86.0001, "RA_OF_ASC_NODE": 350.5812, "ARG_OF_PERICENTER": 241.2627, "MEAN_ANOMALY": 135.8914, "EPHEMERIS_TYPE": 0, "CLASSIFICATION_TYPE": "U", "NORAD_CAT_ID": 33853, "ELEMENT_SET_NO": 999, "REV_AT_EPOCH": 85321, "BSTAR": 0.0027418, "MEAN_MOTION_DOT": 4.78e-05, "MEAN_MOTION_DDOT": 0}, "tle": {"line1": "1 33853U 97051W   25344.98371780  .00004780  00000+0  27418-2 0  9997", "line2": "2 33853  86.0001 350.5812 0207030 241.2627 135.8914 13.99044488853219"}}, "geometry": {"type": "Point", "coordinates": [170.36459803164982, 0.6519255006906538]}}, {"type": "Feature", "properties": {"norad_id": 33860, "name": "IRIDIUM 33 DEB", "group": "iridium-33-debris", "lat": 62.869705299424986, "lon": -159.2476683244579, "alt_km": 665.7711895210541, "timestamp": "2025-12-11T08:58:27.509940+00:00", "meta": {"OBJECT_NAME": "IRIDIUM 33 DEB", "OBJECT_ID": "1997-051AD", "EPOCH": "2025-12-11T03:48:48.164256", "MEAN_MOTION": 14.67334001, "ECCENTRICITY": 0.0007679, "INCLINATION": 86.3835, "RA_OF_ASC_NODE": 27.9377, "ARG_OF_PERICENTER": 3.2947, "MEAN_ANOMALY": 58.2985, "EPHEMERIS_TYPE": 0, "CLASSIFICATION_TYPE": "U", "NORAD_CAT_ID": 33860, "ELEMENT_SET_NO": 999, "REV_AT_EPOCH": 88699, "BSTAR": 0.0018344, "MEAN_MOTION_DOT": 0.00010386, "MEAN_MOTION_DDOT": 0}, "tle": {"line1": "1 33860U 97051AD  25345.15889079  .00010386  00000+0  18344-2 0  9997", "line2": "2 33860  86.3835  27.9377 0007679   3.2947  58.2985 14.67334001886990"}}, "geometry": {"type": "Point", "coordinates": [-159.2476683244579, 62.869705299424986]}}, {"type": "Feature", "properties": {"norad_id": 33862, "name": "IRIDIUM 33 DEB", "group": "iridium-33-debris", "lat": 37.53422594679155, "lon": -144.63309550902744, "alt_km": 646.3091248335586, "timestamp": "2025-12-11T08:58:27.509951+00:00", "meta": {"OBJECT_NAME": "IRIDIUM 33 DEB", "OBJECT_ID": "1997-051AF", "EPOCH": "2025-12-11T03:41:34.520064", "MEAN_MOTION": 14.69430162, "ECCENTRICITY": 0.0053523, "INCLINATION": 86.4089, "RA_OF_ASC_NODE": 38.2294, "ARG_OF_PERICENTER": 74.4791, "MEAN_ANOMALY": 343.9033, "EPHEMERIS_TYPE": 0, "CLASSIFICATION_TYPE": "U", "NORAD_CAT_ID": 33862, "ELEMENT_SET_NO": 999, "REV_AT_EPOCH": 88800, "BSTAR": 0.0020933, "MEAN_MOTION_DOT": 0.00012698, "MEAN_MOTION_DDOT": 0}, "tle": {"line1": "1 33862U 97051AF  25345.15387176  .00012698  00000+0  20933-2 0  9995", "line2": "2 33862  86.4089  38.2294 0053523  74.4791 343.9033 14.69430162888002"}}, "geometry": {"type": "Point", "coordinates": [-144.63309550902744, 37.53422594679155]}}, {"type": "Feature", "properties": {"norad_id": 33866, "name": "IRIDIUM 33 DEB", "group": "iridium-33-debris", "lat": 62.38385349331765, "lon": 100.71887571943155, "alt_km": 819.2654371213139, "timestamp": "2025-12-11T08:58:27.509963+00:00", "meta": {"OBJECT_NAME": "IRIDIUM 33 DEB", "OBJECT_ID": "1997-051AK", "EPOCH": "2025-12-10T18:13:34.881600", "MEAN_MOTION": 14.25264618, "ECCENTRICITY": 0.01143267, "INCLINATION": 86.2998, "RA_OF_ASC_NODE": 93.8733, "ARG_OF_PERICENTER": 167.693, "MEAN_ANOMALY": 345.2596, "EPHEMERIS_TYPE": 0, "CLASSIFICATION_TYPE": "U", "NORAD_CAT_ID": 33866, "ELEMENT_SET_NO": 999, "REV_AT_EPOCH": 86782, "BSTAR": 0.0011367253, "MEAN_MOTION_DOT": 2.881e-05, "MEAN_MOTION_DDOT": 0}, "tle": {"line1": "1 33866U 97051AK  25344.75943150  .00002881  00000+0  11367-2 0  9998", "line2": "2 33866  86.2998  93.8733 0114326 167.6930 345.2596 14.25264618867826"}}, "geometry": {"type": "Point", "coordinates": [100.71887571943155, 62.38385349331765]}}]}